STARLINK-30494          
1 57970U 23151G   26068.36049035 -.00001272  00000+0 -35691-4 0  9993
2 57970  43.0027 192.4566 0001155 241.5536 118.5200 15.28417441137406
STARLINK-33673          
1 63284U 25053V   26068.49569951  .00033960  00000+0  12388-2 0  9992
2 63284  42.9997 235.0792 0001540 279.4260  80.6418 15.27557926 56369
